[{"OBJECT_NAME":"STARLINK-32800","OBJECT_ID":"2025-014J","EPOCH":"2026-03-09T23:00:32.728896","MEAN_MOTION":15.27580308,"ECCENTRICITY":0.00013849,"INCLINATION":43.0009,"RA_OF_ASC_NODE":160.2166,"ARG_OF_PERICENTER":273.5722,"MEAN_ANOMALY":86.4972,"EPHEMERIS_TYPE":0,"CLASSIFICATION_TYPE":"U","NORAD_CAT_ID":62743,"ELEMENT_SET_NO":999,"REV_AT_EPOCH":6321,"BSTAR":0.0011843568,"MEAN_MOTION_DOT":0.00032473,"MEAN_MOTION_DDOT":0},{"OBJECT_NAME":"CZ-6A DEB","OBJECT_ID":"2024-140RA","EPOCH":"2026-03-09T01:51:18.259488","MEAN_MOTION":15.31763252,"ECCENTRICITY":0.00411794,"INCLINATION":89.1856,"RA_OF_ASC_NODE":296.0787,"ARG_OF_PERICENTER":96.6516,"MEAN_ANOMALY":263.9425,"EPHEMERIS_TYPE":0,"CLASSIFICATION_TYPE":"U","NORAD_CAT_ID":61156,"ELEMENT_SET_NO":999,"REV_AT_EPOCH":8391,"BSTAR":0.0079173326,"MEAN_MOTION_DOT":0.00256788,"MEAN_MOTION_DDOT":0}]
